[{"OBJECT_NAME":"ONEWEB-0249","OBJECT_ID":"2021-060A","EPOCH":"2025-08-04T21:42:49.216320","MEAN_MOTION":13.16594098,"ECCENTRICITY":0.0001911,"INCLINATION":87.9045,"RA_OF_ASC_NODE":291.8257,"ARG_OF_PERICENTER":96.8468,"MEAN_ANOMALY":263.288,"EPHEMERIS_TYPE":0,"CLASSIFICATION_TYPE":"U","NORAD_CAT_ID":48967,"ELEMENT_SET_NO":999,"REV_AT_EPOCH":19799,"BSTAR":-0.00054884,"MEAN_MOTION_DOT":-1.97e-6,"MEAN_MOTION_DDOT":0},{"OBJECT_NAME":"ONEWEB-0250","OBJECT_ID":"2021-060B","EPOCH":"2025-08-04T22:39:23.712480","MEAN_MOTION":13.25811196,"ECCENTRICITY":0.0001227,"INCLINATION":87.9042,"RA_OF_ASC_NODE":290.61,"ARG_OF_PERICENTER":77.7972,"MEAN_ANOMALY":282.3301,"EPHEMERIS_TYPE":0,"CLASSIFICATION_TYPE":"U","NORAD_CAT_ID":48968,"ELEMENT_SET_NO":999,"REV_AT_EPOCH":19831,"BSTAR":7.4357e-5,"MEAN_MOTION_DOT":4.6e-7,"MEAN_MOTION_DDOT":0},{"OBJECT_NAME":"ONEWEB-0252","OBJECT_ID":"2021-060D","EPOCH":"2025-08-04T22:28:25.417920","MEAN_MOTION":13.16593398,"ECCENTRICITY":0.0002336,"INCLINATION":87.904,"RA_OF_ASC_NODE":291.8122,"ARG_OF_PERICENTER":101.7057,"MEAN_ANOMALY":258.4336,"EPHEMERIS_TYPE":0,"CLASSIFICATION_TYPE":"U","NORAD_CAT_ID":48970,"ELEMENT_SET_NO":999,"REV_AT_EPOCH":19804,"BSTAR":-0.0007963,"MEAN_MOTION_DOT":-2.92e-6,"MEAN_MOTION_DDOT":0},{"OBJECT_NAME":"ONEWEB-0253","OBJECT_ID":"2021-060E","EPOCH":"2025-08-05T03:40:45.958080","MEAN_MOTION":13.16596,"ECCENTRICITY":0.0002099,"INCLINATION":87.9042,"RA_OF_ASC_NODE":291.7728,"ARG_OF_PERICENTER":92.0328,"MEAN_ANOMALY":268.1043,"EPHEMERIS_TYPE":0,"CLASSIFICATION_TYPE":"U","NORAD_CAT_ID":48971,"ELEMENT_SET_NO":999,"REV_AT_EPOCH":19928,"BSTAR":-9.4394e-5,"MEAN_MOTION_DOT":-2.3e-7,"MEAN_MOTION_DDOT":0},{"OBJECT_NAME":"ONEWEB-0254","OBJECT_ID":"2021-060F","EPOCH":"2025-08-04T22:26:09.509856","MEAN_MOTION":13.16595119,"ECCENTRICITY":0.0001927,"INCLINATION":87.9043,"RA_OF_ASC_NODE":291.802,"ARG_OF_PERICENTER":85.0351,"MEAN_ANOMALY":275.0999,"EPHEMERIS_TYPE":0,"CLASSIFICATION_TYPE":"U","NORAD_CAT_ID":48972,"ELEMENT_SET_NO":999,"REV_AT_EPOCH":19797,"BSTAR":-5.2226e-5,"MEAN_MOTION_DOT":-7.0e-8,"MEAN_MOTION_DDOT":0},{"OBJECT_NAME":"ONEWEB-0255","OBJECT_ID":"2021-060G","EPOCH":"2025-08-04T16:03:06.875712","MEAN_MOTION":13.16596068,"ECCENTRICITY":0.0001984,"INCLINATION":87.9038,"RA_OF_ASC_NODE":291.885,"ARG_OF_PERICENTER":89.5869,"MEAN_ANOMALY":270.5489,"EPHEMERIS_TYPE":0,"CLASSIFICATION_TYPE":"U","NORAD_CAT_ID":48973,"ELEMENT_SET_NO":999,"REV_AT_EPOCH":19801,"BSTAR":0.00012175,"MEAN_MOTION_DOT":5.9e-7,"MEAN_MOTION_DDOT":0},{"OBJECT_NAME":"ONEWEB-0256","OBJECT_ID":"2021-060H","EPOCH":"2025-08-04T22:09:02.318400","MEAN_MOTION":13.16592908,"ECCENTRICITY":0.0002129,"INCLINATION":87.9037,"RA_OF_ASC_NODE":291.8449,"ARG_OF_PERICENTER":100.4866,"MEAN_ANOMALY":259.6505,"EPHEMERIS_TYPE":0,"CLASSIFICATION_TYPE":"U","NORAD_CAT_ID":48974,"ELEMENT_SET_NO":999,"REV_AT_EPOCH":19801,"BSTAR":-0.00019924,"MEAN_MOTION_DOT":-6.3e-7,"MEAN_MOTION_DDOT":0},{"OBJECT_NAME":"ONEWEB-0257","OBJECT_ID":"2021-060J","EPOCH":"2025-08-04T11:59:09.778272","MEAN_MOTION":13.1659573,"ECCENTRICITY":0.000216,"INCLINATION":87.9043,"RA_OF_ASC_NODE":291.8964,"ARG_OF_PERICENTER":93.026,"MEAN_ANOMALY":267.1118,"EPHEMERIS_TYPE":0,"CLASSIFICATION_TYPE":"U","NORAD_CAT_ID":48975,"ELEMENT_SET_NO":999,"REV_AT_EPOCH":19791,"BSTAR":0.00024577,"MEAN_MOTION_DOT":1.07e-6,"MEAN_MOTION_DDOT":0},{"OBJECT_NAME":"ONEWEB-0258","OBJECT_ID":"2021-060K","EPOCH":"2025-08-04T12:01:27.732288","MEAN_MOTION":13.16593697,"ECCENTRICITY":0.0001938,"INCLINATION":87.9039,"RA_OF_ASC_NODE":291.9209,"ARG_OF_PERICENTER":97.6239,"MEAN_ANOMALY":262.5112,"EPHEMERIS_TYPE":0,"CLASSIFICATION_TYPE":"U","NORAD_CAT_ID":48976,"ELEMENT_SET_NO":999,"REV_AT_EPOCH":19792,"BSTAR":0.00010716,"MEAN_MOTION_DOT":5.4e-7,"MEAN_MOTION_DDOT":0},{"OBJECT_NAME":"ONEWEB-0259","OBJECT_ID":"2021-060L","EPOCH":"2025-08-04T04:34:34.851360","MEAN_MOTION":13.16595905,"ECCENTRICITY":0.000197,"INCLINATION":87.9041,"RA_OF_ASC_NODE":291.9671,"ARG_OF_PERICENTER":93.2475,"MEAN_ANOMALY":266.8882,"EPHEMERIS_TYPE":0,"CLASSIFICATION_TYPE":"U","NORAD_CAT_ID":48977,"ELEMENT_SET_NO":999,"REV_AT_EPOCH":19791,"BSTAR":0.00020014,"MEAN_MOTION_DOT":8.9e-7,"MEAN_MOTION_DDOT":0},{"OBJECT_NAME":"ONEWEB-0260","OBJECT_ID":"2021-060M","EPOCH":"2025-08-04T22:36:24.029856","MEAN_MOTION":13.16593119,"ECCENTRICITY":0.0002515,"INCLINATION":87.9035,"RA_OF_ASC_NODE":291.843,"ARG_OF_PERICENTER":102.075,"MEAN_ANOMALY":258.0663,"EPHEMERIS_TYPE":0,"CLASSIFICATION_TYPE":"U","NORAD_CAT_ID":48978,"ELEMENT_SET_NO":999,"REV_AT_EPOCH":19799,"BSTAR":-9.9637e-5,"MEAN_MOTION_DOT":-2.5e-7,"MEAN_MOTION_DDOT":0},{"OBJECT_NAME":"ONEWEB-0261","OBJECT_ID":"2021-060N","EPOCH":"2025-08-04T21:53:05.415072","MEAN_MOTION":13.16594312,"ECCENTRICITY":0.0002322,"INCLINATION":87.9039,"RA_OF_ASC_NODE":291.8502,"ARG_OF_PERICENTER":87.9361,"MEAN_ANOMALY":272.2036,"EPHEMERIS_TYPE":0,"CLASSIFICATION_TYPE":"U","NORAD_CAT_ID":48979,"ELEMENT_SET_NO":999,"REV_AT_EPOCH":19804,"BSTAR":-1.4529e-5,"MEAN_MOTION_DOT":7.0e-8,"MEAN_MOTION_DDOT":0},{"OBJECT_NAME":"ONEWEB-0262","OBJECT_ID":"2021-060P","EPOCH":"2025-08-04T15:56:18.251232","MEAN_MOTION":13.16593766,"ECCENTRICITY":0.000181,"INCLINATION":87.9044,"RA_OF_ASC_NODE":291.8622,"ARG_OF_PERICENTER":89.0181,"MEAN_ANOMALY":271.1157,"EPHEMERIS_TYPE":0,"CLASSIFICATION_TYPE":"U","NORAD_CAT_ID":48980,"ELEMENT_SET_NO":999,"REV_AT_EPOCH":19797,"BSTAR":0.00015737,"MEAN_MOTION_DOT":7.3e-7,"MEAN_MOTION_DDOT":0},{"OBJECT_NAME":"ONEWEB-0263","OBJECT_ID":"2021-060Q","EPOCH":"2025-08-04T22:10:12.558144","MEAN_MOTION":13.16594731,"ECCENTRICITY":0.0002123,"INCLINATION":87.904,"RA_OF_ASC_NODE":291.8341,"ARG_OF_PERICENTER":84.7614,"MEAN_ANOMALY":275.3759,"EPHEMERIS_TYPE":0,"CLASSIFICATION_TYPE":"U","NORAD_CAT_ID":48981,"ELEMENT_SET_NO":999,"REV_AT_EPOCH":19797,"BSTAR":-0.00010949,"MEAN_MOTION_DOT":-2.9e-7,"MEAN_MOTION_DDOT":0},{"OBJECT_NAME":"ONEWEB-0264","OBJECT_ID":"2021-060R","EPOCH":"2025-08-04T15:46:01.380288","MEAN_MOTION":13.16592708,"ECCENTRICITY":0.000204,"INCLINATION":87.9039,"RA_OF_ASC_NODE":291.8928,"ARG_OF_PERICENTER":93.8319,"MEAN_ANOMALY":266.3045,"EPHEMERIS_TYPE":0,"CLASSIFICATION_TYPE":"U","NORAD_CAT_ID":48982,"ELEMENT_SET_NO":999,"REV_AT_EPOCH":19794,"BSTAR":0.00010495,"MEAN_MOTION_DOT":5.3e-7,"MEAN_MOTION_DDOT":0},{"OBJECT_NAME":"ONEWEB-0266","OBJECT_ID":"2021-060T","EPOCH":"2025-08-04T16:16:48.643392","MEAN_MOTION":13.16593582,"ECCENTRICITY":0.0001842,"INCLINATION":87.9044,"RA_OF_ASC_NODE":291.8629,"ARG_OF_PERICENTER":98.1077,"MEAN_ANOMALY":262.0263,"EPHEMERIS_TYPE":0,"CLASSIFICATION_TYPE":"U","NORAD_CAT_ID":48984,"ELEMENT_SET_NO":999,"REV_AT_EPOCH":19793,"BSTAR":-8.3097e-5,"MEAN_MOTION_DOT":-1.9e-7,"MEAN_MOTION_DDOT":0},{"OBJECT_NAME":"ONEWEB-0267","OBJECT_ID":"2021-060U","EPOCH":"2025-08-04T22:01:04.538496","MEAN_MOTION":13.16593681,"ECCENTRICITY":0.0002169,"INCLINATION":87.9042,"RA_OF_ASC_NODE":291.8177,"ARG_OF_PERICENTER":90.9891,"MEAN_ANOMALY":269.1488,"EPHEMERIS_TYPE":0,"CLASSIFICATION_TYPE":"U","NORAD_CAT_ID":48985,"ELEMENT_SET_NO":999,"REV_AT_EPOCH":19797,"BSTAR":-0.00010738,"MEAN_MOTION_DOT":-2.8e-7,"MEAN_MOTION_DDOT":0},{"OBJECT_NAME":"ONEWEB-0268","OBJECT_ID":"2021-060V","EPOCH":"2025-08-04T15:47:09.279456","MEAN_MOTION":13.16596518,"ECCENTRICITY":0.0002135,"INCLINATION":87.9044,"RA_OF_ASC_NODE":291.8755,"ARG_OF_PERICENTER":98.305,"MEAN_ANOMALY":261.8323,"EPHEMERIS_TYPE":0,"CLASSIFICATION_TYPE":"U","NORAD_CAT_ID":48986,"ELEMENT_SET_NO":999,"REV_AT_EPOCH":19820,"BSTAR":7.8335e-5,"MEAN_MOTION_DOT":4.3e-7,"MEAN_MOTION_DDOT":0},{"OBJECT_NAME":"ONEWEB-0269","OBJECT_ID":"2021-060W","EPOCH":"2025-08-04T22:37:32.088000","MEAN_MOTION":13.16594125,"ECCENTRICITY":0.0002004,"INCLINATION":87.9037,"RA_OF_ASC_NODE":291.8511,"ARG_OF_PERICENTER":99.9628,"MEAN_ANOMALY":260.1729,"EPHEMERIS_TYPE":0,"CLASSIFICATION_TYPE":"U","NORAD_CAT_ID":48987,"ELEMENT_SET_NO":999,"REV_AT_EPOCH":19801,"BSTAR":-0.00065991,"MEAN_MOTION_DOT":-2.39e-6,"MEAN_MOTION_DDOT":0},{"OBJECT_NAME":"ONEWEB-0270","OBJECT_ID":"2021-060X","EPOCH":"2025-08-04T15:44:52.039104","MEAN_MOTION":13.16596584,"ECCENTRICITY":0.0002069,"INCLINATION":87.904,"RA_OF_ASC_NODE":291.8785,"ARG_OF_PERICENTER":83.4428,"MEAN_ANOMALY":276.6938,"EPHEMERIS_TYPE":0,"CLASSIFICATION_TYPE":"U","NORAD_CAT_ID":48988,"ELEMENT_SET_NO":999,"REV_AT_EPOCH":19801,"BSTAR":0.00017305,"MEAN_MOTION_DOT":7.9e-7,"MEAN_MOTION_DDOT":0},{"OBJECT_NAME":"ONEWEB-0271","OBJECT_ID":"2021-060Y","EPOCH":"2025-08-04T22:44:23.629344","MEAN_MOTION":13.16593653,"ECCENTRICITY":0.0002171,"INCLINATION":87.9042,"RA_OF_ASC_NODE":291.8035,"ARG_OF_PERICENTER":91.1863,"MEAN_ANOMALY":268.9517,"EPHEMERIS_TYPE":0,"CLASSIFICATION_TYPE":"U","NORAD_CAT_ID":48989,"ELEMENT_SET_NO":999,"REV_AT_EPOCH":19805,"BSTAR":-7.6873e-5,"MEAN_MOTION_DOT":-1.7e-7,"MEAN_MOTION_DDOT":0},{"OBJECT_NAME":"ONEWEB-0272","OBJECT_ID":"2021-060Z","EPOCH":"2025-08-04T12:19:40.814112","MEAN_MOTION":13.16595639,"ECCENTRICITY":0.0002308,"INCLINATION":87.9035,"RA_OF_ASC_NODE":291.9193,"ARG_OF_PERICENTER":96.1495,"MEAN_ANOMALY":263.9899,"EPHEMERIS_TYPE":0,"CLASSIFICATION_TYPE":"U","NORAD_CAT_ID":48990,"ELEMENT_SET_NO":999,"REV_AT_EPOCH":19794,"BSTAR":-0.0010447,"MEAN_MOTION_DOT":-3.87e-6,"MEAN_MOTION_DDOT":0},{"OBJECT_NAME":"ONEWEB-0273","OBJECT_ID":"2021-060AA","EPOCH":"2025-08-04T21:58:46.756416","MEAN_MOTION":13.16594138,"ECCENTRICITY":0.0001998,"INCLINATION":87.9044,"RA_OF_ASC_NODE":291.8254,"ARG_OF_PERICENTER":92.3477,"MEAN_ANOMALY":267.7883,"EPHEMERIS_TYPE":0,"CLASSIFICATION_TYPE":"U","NORAD_CAT_ID":48991,"ELEMENT_SET_NO":999,"REV_AT_EPOCH":19797,"BSTAR":-0.0006528,"MEAN_MOTION_DOT":-2.37e-6,"MEAN_MOTION_DDOT":0},{"OBJECT_NAME":"ONEWEB-0274","OBJECT_ID":"2021-060AB","EPOCH":"2025-08-04T22:35:16.617984","MEAN_MOTION":13.16593797,"ECCENTRICITY":0.0002424,"INCLINATION":87.9035,"RA_OF_ASC_NODE":291.8544,"ARG_OF_PERICENTER":99.859,"MEAN_ANOMALY":260.2815,"EPHEMERIS_TYPE":0,"CLASSIFICATION_TYPE":"U","NORAD_CAT_ID":48992,"ELEMENT_SET_NO":999,"REV_AT_EPOCH":19801,"BSTAR":-8.6346e-6,"MEAN_MOTION_DOT":1.0e-7,"MEAN_MOTION_DDOT":0}]
